{
  "fetched_at": "2026-05-25T14:31:33.909757+00:00",
  "satellites": {
    "57166": {
      "name": "Meteor M2-3",
      "tle_line1": "1 57166U 23091A   26145.19294603 -.00000014  00000+0  12556-4 0  9990",
      "tle_line2": "2 57166  98.6095 200.6399 0003065 224.6326 135.4607 14.24044498151241"
    },
    "59051": {
      "name": "Meteor M2-4",
      "tle_line1": "1 59051U 24039A   26145.18156737  .00000011  00000+0  24496-4 0  9994",
      "tle_line2": "2 59051  98.7000 104.7707 0006080 231.2887 128.7748 14.22426841115993"
    },
    "38771": {
      "name": "MetOp-B",
      "tle_line1": "1 38771U 12049A   26145.17160836  .00000089  00000+0  60392-4 0  9992",
      "tle_line2": "2 38771  98.6518 197.1283 0003303  69.0453 291.1078 14.21425461709994"
    },
    "43689": {
      "name": "MetOp-C",
      "tle_line1": "1 43689U 18087A   26145.12170086  .00000082  00000+0  57139-4 0  9995",
      "tle_line2": "2 43689  98.6655 205.1453 0000773 151.2544 208.8676 14.21504906391552"
    },
    "60543": {
      "name": "Arctic Weather Satellite",
      "tle_line1": "1 60543U 24149CD  26145.18338041  .00000674  00000+0  75864-4 0  9994",
      "tle_line2": "2 60543  97.6806 216.3055 0002652 150.2093 209.9276 14.89810920 95879"
    }
  }
}